ENDUROSAT ONE           
1 43551U 98067NZ  20272.98193625  .00463153  10657-3  78004-3 0  9990
2 43551  51.6246  95.6793 0005132 255.5345 104.5096 16.02163937126836
EQUISAT                 
1 43552U 98067PA  20273.01259271  .00088649  00000-0  43852-3 0  9990
2 43552  51.6293 114.2513 0004092 159.4951 200.6216 15.81293094126551
AEROCUBE 12A            
1 43556U 18046C   20272.64198246  .00004187  00000-0  15376-3 0  9990
2 43556  51.6415 329.6486 0007780 307.6515  52.3759 15.30098748123174
AEROCUBE 12B            
1 43557U 18046D   20272.65760145  .00002761  00000-0  10663-3 0  9995
2 43557  51.6413 330.4873 0007754 307.5427  52.4848 15.29776570123113
UITMSAT-1               
1 43589U 98067PD  20272.69881411  .00167810  00000-0  59927-3 0  9998
2 43589  51.6302 110.4262 0003941 196.3827 163.7051 15.87840471122314
MAYA-1                  
1 43590U 98067PE  20271.93548481  .00129417  00000-0  46965-3 0  9992
2 43590  51.6257 114.2700 0003781 189.6192 170.4741 15.87631425122123
BHUTAN-1                
1 43591U 98067PF  20272.27131674  .00184581  00000-0  64973-3 0  9995
2 43591  51.6318 112.1609 0003996 193.5057 166.5841 15.88084428122188
SIRIUSSAT-1             
1 43595U 98067PG  20272.93672622  .00049596  00000-0  23108-3 0  9996
2 43595  51.6223 116.5320 0005757 108.3598 251.8470 15.82801945121366
SIRIUSSAT-2             
1 43596U 98067PH  20272.05839633  .00050549  00000-0  23860-3 0  9992
2 43596  51.6294 121.9739 0007135 177.0188 183.0063 15.82503059121212
TANUSHA-3               
1 43597U 98067PJ  20248.19053934  .05224124  12197-4  75260-3 0  9995
2 43597  51.6102 220.8087 0003266 222.6275 137.4495 16.33928828117760
SURFSAT                 
1 43614U 18070B   20273.02371219  .00006520  00000-0  16499-3 0  9998
2 43614  93.0282 197.4566 0012419 303.6216  56.3853 15.39706196114418
CP7 (DAVE)              
1 43615U 18070C   20272.41574186  .00006318  00000-0  16080-3 0  9990
2 43615  93.0284 197.1884 0012672 305.8999  54.1078 15.39526129114314
ELFIN-B                 
1 43616U 18070D   20272.48917697  .00008859  00000-0  21384-3 0  9991
2 43616  93.0243 197.1986 0012914 306.7154  53.2914 15.41113361114384
ELFIN-A                 
1 43617U 18070E   20272.57354492  .00009713  00000-0  23269-3 0  9994
2 43617  93.0296 197.8331 0012183 302.4629  57.5448 15.41348844114400
CUBEBEL-1 (BSUSAT-1)    
1 43666U 18083E   20272.90832269  .00001306  00000-0  66593-4 0  9990
2 43666  97.4836 298.3298 0015106   6.9019 114.3178 15.18441117106312
CICERO 10               
1 43690U 18088A   20272.89724125  .00001942  00000-0  87285-4 0  9998
2 43690  85.0420  10.1523 0012719 294.1796  65.8115 15.20388566104457
IRVINE01                
1 43693U 18088D   20272.97097118  .00005362  00000-0  22379-3 0  9997
2 43693  85.0392   8.4668 0015288 269.1314  90.8177 15.23309405104601
PROXIMA I               
1 43694U 18088E   20272.83644140  .00001839  00000-0  78257-4 0  9998
2 43694  85.0362   8.4643 0016822 262.2210  97.7123 15.22138061104576
PROXIMA II              
1 43696U 18088G   20272.83456107  .00001801  00000-0  76594-4 0  9995
2 43696  85.0364   8.4704 0016863 262.1683  97.7645 15.22138507104569
FACSAT-1                
1 43721U 18096C   20272.95307286  .00002472  00000-0  94256-4 0  9999
2 43721  97.4136 345.9413 0018986 114.6539  58.3338 15.27487413102183
CENTAURI-2              
1 43722U 18096D   20272.84374465  .00004738  00000-0  17478-3 0  9998
2 43722  97.4152 346.2139 0018984 115.0688 245.2524 15.28106434102185
INNOSAT-2               
1 43738U 18096V   20272.84758021  .00004977  00000-0  16824-3 0  9998
2 43738  97.4170 348.6304 0024487 120.3132  17.2177 15.30823036102346
SIRION PATHFINDER-2     
1 43759U 18099B   20272.96623528  .00000863  00000-0  83398-4 0  9991
2 43759  97.6974 342.8153 0013849 190.7328 169.3602 14.95325426 99403
CORVUS-BC 4             
1 43767U 18099K   20272.94584064  .00000625  00000-0  62688-4 0  9994
2 43767  97.6946 342.0927 0011515 194.3390 165.7504 14.94762291 99369
MOVE-II                 
1 43780U 18099Y   20272.76849857  .00000627  00000-0  61700-4 0  9999
2 43780  97.6986 342.5897 0012883 203.6502 156.4128 14.95495936 99355
SPACEBEE-7              
1 43816U 18099BL  20272.82189439  .00001130  00000-0  10637-3 0  9991
2 43816  97.6998 343.0959 0013257 186.5595 173.5455 14.95773537 98943
SPACEBEE-5              
1 43817U 18099BM  20272.46218106  .00001644  00000-0  14970-3 0  9990
2 43817  97.7053 343.3652 0013204 188.8048 171.2944 14.96484383 98914
SPACEBEE-6              
1 43818U 18099BN  20272.77114523  .00000706  00000-0  68022-4 0  9999
2 43818  97.7017 343.2392 0013119 186.9637 173.1404 14.95995459 99095
SHIELDS 1               
1 43850U 18104B   20272.85902110  .00000867  00000-0  36618-4 0  9992
2 43850  85.0253 106.9957 0016785  55.4317 304.8505 15.21468819 99192
STF-1                   
1 43852U 18104D   20272.81002717  .00002025  00000-0  88056-4 0  9995
2 43852  85.0296 107.6326 0016724  68.1881 292.1138 15.21471192 99165
ZACUBE-2                
1 43907U 18111AH  20273.10520337  .00000888  00000-0  38495-4 0  9997
2 43907  97.2531 169.6848 0022531 133.5922 338.0187 15.24688615 97802
LUME 1                  
1 43908U 18111AJ  20273.17252891  .00002103  00000-0  85959-4 0  9991
2 43908  97.2533 169.9978 0022316 133.0652 227.2459 15.25230610 97831
AOBA VELOX-IV           
1 43940U 19003J   20273.10587131  .00004198  00000-0  16807-3 0  9990
2 43940  97.2183 320.7885 0022669 212.7181 147.2655 15.25354799 94443
CATSAT-2                
1 44029U 98067PV  20272.82931546  .00043369  00000-0  37170-3 0  9996
2 44029  51.6377 150.8226 0004135 131.2895 228.8458 15.68952168 94737
DELPHINI                
1 44030U 98067PW  20273.08551094  .00054259  00000-0  43478-3 0  9991
2 44030  51.6327 147.1096 0004354 130.6664 229.4712 15.70481433 94777
UNITE                   
1 44031U 98067PX  20272.42937940  .00024551  00000-0  26753-3 0  9996
2 44031  51.6370 162.3687 0003738 109.9028 250.2369 15.63250055 94517
CATSAT-1                
1 44033U 98067PZ  20272.82924008  .00044983  00000-0  38502-3 0  9999
2 44033  51.6379 150.8309 0004196 127.6973 232.4405 15.68967925 94649
RAAVANA-1               
1 44329U 98067QE  20272.15286282  .00030064  00000-0  37013-3 0  9999
2 44329  51.6390 178.6012 0005573  40.1155 320.0249 15.59950232 73022
UGUISU                  
1 44330U 98067QF  20273.13270243  .00028068  00000-0  34686-3 0  9994
2 44330  51.6366 173.8658 0005492  43.3417 316.8008 15.59889567 73158
NEPALISAT-1             
1 44331U 98067QG  20272.78484116  .00025949  00000-0  31997-3 0  9998
2 44331  51.6367 175.2948 0005560  45.5299 314.6148 15.59993692 73118
SPOOQY-1                
1 44332U 98067QH  20272.15511866  .00025946  00000-0  32213-3 0  9992
2 44332  51.6374 178.5954 0004835  47.5119 312.6282 15.59816982 72973
SPACEBEE-9              
1 44370U 19037F   20272.40134927  .00022197  00000-0  46604-3 0  9995
2 44370  45.0047 259.5429 0012201  70.3239 289.8967 15.44964175 70514
SPACEBEE-8              
1 44371U 19037G   20272.66198045  .00048456  00000-0  81769-3 0  9992
2 44371  45.0049 247.9878 0011038  81.3168 278.8974 15.50895578 70676
IOD-1 GEMS              
1 44385U 98067QK  20272.84257617  .00047104  00000-0  49688-3 0  9991
2 44385  51.6387 171.2531 0001186  40.4022 319.7060 15.63748700 70659
MOVE-IIB                
1 44398U 19038N   20272.82994672  .00001662  00000-0  98431-4 0  9993
2 44398  97.5459 232.8103 0026145 128.5737 231.7845 15.12532168 68209
SONATE                  
1 44400U 19038Q   20272.76069391  .00000729  00000-0  45898-4 0  9993
2 44400  97.5507 232.7463 0026397 127.9740 232.3881 15.12046794 68180
LUCKY-7                 
1 44406U 19038W   20273.15469632  .00001123  00000-0  68136-4 0  9994
2 44406  97.5509 233.2794 0025849 126.3304 234.0319 15.12335118 68244
BEESAT 9                
1 44412U 19038AC  20272.41893178  .00001611  00000-0  95887-4 0  9990
2 44412  97.5498 232.5349 0023725 133.8917 226.4278 15.12452083 67834
JAISAT-1                
1 44419U 19038F   20272.53860538  .00001529  00000-0  90036-4 0  9993
2 44419  97.5501 232.9960 0022626 132.3266 227.9887 15.12936246 68188
SWIATOWID               
1 44426U 98067QL  20273.12406075  .00046977  00000-0  46540-3 0  9994
2 44426  51.6387 168.2881 0001970  40.9171 104.1774 15.65336852 70729
KRAKSAT                 
1 44427U 98067QM  20273.16994932  .00014884  00000-0  20509-3 0  9992
2 44427  51.6410 178.3742 0002801   9.7080 140.1040 15.57457503 70635
VCC A                   
1 44428U 98067QN  20272.44643536  .00026060  00000-0  33094-3 0  9996
2 44428  51.6389 179.1091 0002152  31.5545 328.5577 15.59225258 70566
ENTRYSAT                
1 44429U 98067QP  20272.46577799  .00034333  00000-0  41013-3 0  9998
2 44429  51.6374 176.9468 0001653  34.2049 325.9050 15.60685075 70597
VCC C                   
1 44430U 98067QQ  20272.15346627  .00046704  00000-0  51771-3 0  9997
2 44430  51.6371 176.3667 0001881  63.0630 297.0556 15.62481551 69391
VCC B                   
1 44431U 98067QR  20271.99402881  .00019685  00000-0  25129-3 0  9990
2 44431  51.6372 181.3105 0002262  28.6050 331.5067 15.59272639 70432
ATL-1                   
1 44830U 19084G   20272.83716359  .00710529  24598-3  11352-2 0  9995
2 44830  96.9457 144.0685 0012405 186.8348 173.2766 16.03557991 46849
SMOG-P                  
1 44832U 19084J   20272.06303716  .11453400  23230-5  63587-3 0  9997
2 44832  96.9437 144.0914 0010614 231.8961 128.1384 16.41416157 46773
DUCHIFAT-3              
1 44854U 19089C   20272.86811585  .00000549  00000-0  50657-4 0  9992
2 44854  36.9657 207.1631 0007935 186.8532 173.2121 14.99137301 43822
EYESAT-NANO             
1 44877U 19092E   20272.77362419  .00001835  00000-0  96030-4 0  9992
2 44877  97.4575  94.3919 0014288  25.9645 334.2302 15.17011138 43257
